#aV2023 10 22  0  0  0.00000000     288 DD+AD WGS84 FIT  NGA
## 2285      0.00000000   300.00000000 60239 0.0000000000000
+   32     1  2  3  4  5  6  7  8  9 10 11 12 13 14 15 16 17
+         18 19 20 21 22 23 24 25 26 27 28 29 30 31 32  0  0
+          0  0  0  0  0  0  0  0  0  0  0  0  0  0  0  0  0
+          0  0  0  0  0  0  0  0  0  0  0  0  0  0  0  0  0
+          0  0  0  0  0  0  0  0  0  0  0  0  0  0  0  0  0
++         2  2  2  2  2  2  2  2  2  2  2  2  2  2  2  2  2
++         2  2  2  2  2  2  2  2  2  2  2  2  2  2  2  0  0
++         0  0  0  0  0  0  0  0  0  0  0  0  0  0  0  0  0
++         0  0  0  0  0  0  0  0  0  0  0  0  0  0  0  0  0
++         0  0  0  0  0  0  0  0  0  0  0  0  0  0  0  0  0
%c cc cc ccc ccc cccc cccc cccc cccc ccccc ccccc ccccc ccccc
%c cc cc ccc ccc cccc cccc cccc cccc ccccc ccccc ccccc ccccc
%f  0.0000000  0.000000000  0.00000000000  0.000000000000000
%f  0.0000000  0.000000000  0.00000000000  0.000000000000000
%i    0    0    0    0      0      0      0      0         0
%i    0    0    0    0      0      0      0      0         0
/*      NGA, ST. LOUIS,MO.                                  
/*   EPHEMERIS COMPUTED FROM 2 DAYS OF DATA                 
/*   EPOCHA v8 SMOOTHER                                     
/*   G2139 IERS2010 SATIGS SATAPC                           
*  2023 10 22 14 25  0.00000000
P  1 -14586.475550  21948.240007    660.797647    163.485645                    
V  1  -1137.490950  -2230.090497  32619.496485     -0.003275                    
P  2 -16353.470485  19150.138028   8639.990015   -538.819924                    
V  2   2486.988632 -10310.145659  29454.441502      0.048046                    
P  3 -14078.819266  12299.631689 -18968.791393    -63.215154                    
V  3 -23724.565968  -1809.570024  16665.940669      0.235663                    
P  4  -4842.846881  18662.133882 -18203.628350    191.658351                    
V  4 -11747.360403 -20035.531146 -17531.485659      0.107030                    
P  5  24726.079864  -5826.703990   7737.507426   -147.477507                    
V  5  10083.997580   2177.793762 -29792.176474     -0.014512                    
P  6  12268.350321   7817.203009 -22155.679214    524.779956                    
V  6 -15068.436817  23850.433299    161.489102     -0.087943                    
P  7  -1754.424027  22357.320577  14324.357365     33.595444                    
V  7 -11410.020386  13650.775253 -23959.275688     -0.101505                    
P  8 -11749.266468   9999.036354  21513.881473   -148.388756                    
V  8 -14277.176066 -23568.009283   3545.522214     -0.018800                    
P  9   4439.152531  23674.472097 -11220.907829    -25.147762                    
V  9  -9237.985119 -11007.005454 -27143.675240      0.108791                    
P 10 -18543.685122 -11090.442768  15851.271603    -58.360771                    
V 10  19640.096470   -761.411609  22389.800484     -0.015257                    
P 11  18531.431651  -4530.851733 -18438.294634   -426.626046                    
V 11 -12038.060185  20183.878129 -17092.246316     -0.170807                    
P 12  16945.819243 -10688.822928 -17675.941774   -438.685320                    
V 12  21669.920920   3669.170441  18922.632913     -0.041992                    
P 13  15687.931025    373.674724  21260.552124    586.880216                    
V 13   9133.899229  25838.215290  -6919.017282      0.042481                    
P 14  15051.780830  13375.126246  17429.059042    221.409617                    
V 14 -22126.609673    591.434761  18509.059098      0.109891                    
P 15   9876.438454 -12472.488763  20759.522789     89.612075                    
V 15  17134.341570  21683.438587   4992.628972      0.037345                    
P 16 -26590.002913   -982.572080   2954.573208   -434.974818                    
V 16  -3791.351284  -2792.940497 -31234.735354      0.062177                    
P 17  12949.367467  22839.445582  -3102.160971    723.763984                    
V 17   -456.887153   5160.581123  31759.205759     -0.001757                    
P 18   1200.366213 -21434.174313  15526.044939   -456.584191                    
V 18  12153.180841 -15663.261692 -22752.259936     -0.115387                    
P 19  16136.629221  17776.810992 -11924.183800    388.455657                    
V 19   3934.698418  14273.366304  26713.029217      0.051970                    
P 20  26063.062094   -580.524226  -4481.302375    405.517019                    
V 20  -5254.000977   4040.794730 -30961.959247     -0.019524                    
P 21 -17203.100240  16119.768225  11772.507084    146.171703                    
V 21   3885.196558 -14270.257253  27270.345602     -0.009039                    
P 22  20177.534703  11523.185903  13055.183282     98.110940                    
V 22 -16111.289359    399.245213  25711.309079     -0.071497                    
P 23  -5658.287716 -14548.377608  21523.830566     86.625964                    
V 23  27231.769018   -471.511890   6665.703440      0.059160                    
P 24  15093.502689 -20633.343044   5944.655478   -352.582793                    
V 24    -88.258124   9064.926243  30167.521259     -0.096378                    
P 25   2848.697184 -15436.258167 -21726.898475    473.924861                    
V 25  26881.063470    737.797413   3313.078688      0.017736                    
P 26 -25350.326518  -4358.172754  -7461.263890    221.641245                    
V 26   9094.946038  -3574.530249 -28960.051548     -0.023658                    
P 27 -17542.566764  -4029.755363  19413.031395    -58.949970                    
V 27 -11131.980732 -22475.167413 -14127.887554     -0.056712                    
P 28 -11772.463059  -9894.315897 -21680.701631    -30.343670                    
V 28  13815.475732 -23741.233445   3336.878670     -0.073176                    
P 29  -2323.195834 -23911.902122 -11254.698728   -610.156640                    
V 29   7749.835238  12133.240658 -27583.811834     -0.001112                    
P 30   6884.608931  16457.205965  19721.570412   -476.077099                    
V 30 -14457.165539  20388.941133 -12304.367190      0.037854                    
P 31 -17096.425142   -421.922274 -20616.684581   -224.936304                    
V 31  13266.962694 -21973.662770 -10241.251682     -0.004282                    
P 32 -16380.759544 -19890.625491  -6688.792085   -576.106153                    
V 32  -1965.136520  -8840.594725  30076.373053     -0.050917                    
EOF
